{"type":"FeatureCollection","metadata":{"title":"India-Sri Lanka International Maritime Boundary Line (IMBL)","source":"Treaty texts 1974 and 1976 (UN DOALOS copies); cross-checked against Marine Regions v12","crossCheckMaxDeviationM":0.0,"generated":"2026-10-06","units":{"coordinates":"WGS84 lon/lat degrees"},"notForNavigation":true,"note":"Positions at sea are fixed by joint survey under the treaties; this line is for safety awareness and modelling, not navigation."},"features":[{"type":"Feature","id":"palk-strait-1974","properties":{"kind":"IMBL","name":"Palk Strait to Adam's Bridge (historic waters)","treaty":"Agreement between Sri Lanka and India on the Boundary in Historic Waters between the two Countries and Related Matters","signed":"1974-06-28","sourceUrl":"https://www.marineregions.org/documents/LKA-IND1974BW.PDF","construction":"Great-circle arcs between treaty positions, densified every 500 m","positions":[{"id":"1","latitude":10.083333,"longitude":80.05,"asWritten":"10 05 N, 80 03 E"},{"id":"2","latitude":9.95,"longitude":79.583333,"asWritten":"09 57 N, 79 35 E"},{"id":"3","latitude":9.669167,"longitude":79.376667,"asWritten":"09 40.15 N, 79 22.60 E"},{"id":"4","latitude":9.363333,"longitude":79.511667,"asWritten":"09 21.80 N, 79 30.70 E"},{"id":"5","latitude":9.216667,"longitude":79.533333,"asWritten":"09 13 N, 79 32 E"},{"id":"6","latitude":9.1,"longitude":79.533333,"asWritten":"09 06 N, 79 32 E"}]},"geometry":{"type":"LineString","coordinates":[[80.05,10.083333],[80.045637,10.08209],[80.041274,10.080847],[80.036911,10.079604],[80.032548,10.078361],[80.028185,10.077117],[80.023822,10.075874],[80.019459,10.074631],[80.015096,10.073387],[80.010733,10.072144],[80.00637,10.0709],[80.002007,10.069656],[79.997644,10.068413],[79.993282,10.067169],[79.988919,10.065925],[79.984556,10.064681],[79.980194,10.063437],[79.975831,10.062193],[79.971468,10.060949],[79.967106,10.059705],[79.962743,10.058461],[79.958381,10.057217],[79.954018,10.055972],[79.949656,10.054728],[79.945294,10.053484],[79.940931,10.052239],[79.936569,10.050995],[79.932207,10.04975],[79.927845,10.048505],[79.923482,10.047261],[79.91912,10.046016],[79.914758,10.044771],[79.910396,10.043526],[79.906034,10.042281],[79.901672,10.041036],[79.89731,10.039791],[79.892948,10.038546],[79.888586,10.037301],[79.884224,10.036056],[79.879862,10.034811],[79.8755,10.033565],[79.871138,10.03232],[79.866777,10.031075],[79.862415,10.029829],[79.858053,10.028584],[79.853692,10.027338],[79.84933,10.026092],[79.844968,10.024847],[79.840607,10.023601],[79.836245,10.022355],[79.831884,10.021109],[79.827522,10.019863],[79.823161,10.018617],[79.818799,10.017371],[79.814438,10.016125],[79.810077,10.014879],[79.805715,10.013633],[79.801354,10.012386],[79.796993,10.01114],[79.792632,10.009894],[79.788271,10.008647],[79.783909,10.007401],[79.779548,10.006154],[79.775187,10.004907],[79.770826,10.003661],[79.766465,10.002414],[79.762104,10.001167],[79.757743,9.99992],[79.753382,9.998673],[79.749022,9.997427],[79.744661,9.99618],[79.7403,9.994932],[79.735939,9.993685],[79.731578,9.992438],[79.727218,9.991191],[79.722857,9.989944],[79.718496,9.988696],[79.714136,9.987449],[79.709775,9.986201],[79.705415,9.984954],[79.701054,9.983706],[79.696694,9.982459],[79.692333,9.981211],[79.687973,9.979963],[79.683613,9.978715],[79.679252,9.977467],[79.674892,9.976219],[79.670532,9.974972],[79.666171,9.973723],[79.661811,9.972475],[79.657451,9.971227],[79.653091,9.969979],[79.648731,9.968731],[79.644371,9.967482],[79.640011,9.966234],[79.635651,9.964986],[79.631291,9.963737],[79.626931,9.962489],[79.622571,9.96124],[79.618211,9.959991],[79.613851,9.958743],[79.609491,9.957494],[79.605132,9.956245],[79.600772,9.954996],[79.596412,9.953747],[79.592053,9.952498],[79.587693,9.951249],[79.583333,9.95],[79.580682,9.9464],[79.57803,9.942801],[79.575378,9.939201],[79.572726,9.935601],[79.570075,9.932002],[79.567423,9.928402],[79.564772,9.924802],[79.562121,9.921202],[79.559469,9.917603],[79.556818,9.914003],[79.554167,9.910403],[79.551516,9.906803],[79.548864,9.903203],[79.546213,9.899603],[79.543562,9.896003],[79.540912,9.892403],[79.538261,9.888803],[79.53561,9.885203],[79.532959,9.881603],[79.530308,9.878003],[79.527658,9.874403],[79.525007,9.870803],[79.522357,9.867203],[79.519706,9.863603],[79.517056,9.860003],[79.514405,9.856403],[79.511755,9.852803],[79.509105,9.849202],[79.506455,9.845602],[79.503805,9.842002],[79.501155,9.838402],[79.498505,9.834801],[79.495855,9.831201],[79.493205,9.827601],[79.490555,9.824001],[79.487905,9.8204],[79.485255,9.8168],[79.482606,9.813199],[79.479956,9.809599],[79.477307,9.805999],[79.474657,9.802398],[79.472008,9.798798],[79.469358,9.795197],[79.466709,9.791597],[79.46406,9.787996],[79.461411,9.784395],[79.458762,9.780795],[79.456112,9.777194],[79.453463,9.773594],[79.450814,9.769993],[79.448166,9.766392],[79.445517,9.762792],[79.442868,9.759191],[79.440219,9.75559],[79.43757,9.751989],[79.434922,9.748389],[79.432273,9.744788],[79.429625,9.741187],[79.426976,9.737586],[79.424328,9.733985],[79.42168,9.730385],[79.419031,9.726784],[79.416383,9.723183],[79.413735,9.719582],[79.411087,9.715981],[79.408439,9.71238],[79.405791,9.708779],[79.403143,9.705178],[79.400495,9.701577],[79.397847,9.697976],[79.395199,9.694375],[79.392552,9.690774],[79.389904,9.687173],[79.387256,9.683571],[79.384609,9.67997],[79.381961,9.676369],[79.379314,9.672768],[79.376667,9.669167],[79.378468,9.665089],[79.38027,9.661012],[79.382071,9.656934],[79.383873,9.652857],[79.385674,9.648779],[79.387476,9.644702],[79.389277,9.640624],[79.391078,9.636547],[79.392879,9.632469],[79.394681,9.628392],[79.396482,9.624314],[79.398283,9.620237],[79.400084,9.616159],[79.401885,9.612082],[79.403686,9.608004],[79.405487,9.603927],[79.407288,9.599849],[79.409089,9.595771],[79.41089,9.591694],[79.41269,9.587616],[79.414491,9.583539],[79.416292,9.579461],[79.418092,9.575383],[79.419893,9.571306],[79.421694,9.567228],[79.423494,9.56315],[79.425295,9.559073],[79.427095,9.554995],[79.428895,9.550917],[79.430696,9.54684],[79.432496,9.542762],[79.434296,9.538684],[79.436096,9.534606],[79.437897,9.530529],[79.439697,9.526451],[79.441497,9.522373],[79.443297,9.518295],[79.445097,9.514218],[79.446897,9.51014],[79.448697,9.506062],[79.450497,9.501984],[79.452296,9.497906],[79.454096,9.493829],[79.455896,9.489751],[79.457696,9.485673],[79.459495,9.481595],[79.461295,9.477517],[79.463094,9.473439],[79.464894,9.469361],[79.466693,9.465284],[79.468493,9.461206],[79.470292,9.457128],[79.472092,9.45305],[79.473891,9.448972],[79.47569,9.444894],[79.477489,9.440816],[79.479289,9.436738],[79.481088,9.43266],[79.482887,9.428582],[79.484686,9.424504],[79.486485,9.420426],[79.488284,9.416348],[79.490083,9.41227],[79.491882,9.408192],[79.493681,9.404114],[79.495479,9.400036],[79.497278,9.395958],[79.499077,9.39188],[79.500876,9.387802],[79.502674,9.383724],[79.504473,9.379646],[79.506271,9.375568],[79.50807,9.37149],[79.509868,9.367411],[79.511667,9.363333],[79.512323,9.358889],[79.51298,9.354444],[79.513637,9.35],[79.514294,9.345556],[79.514951,9.341111],[79.515607,9.336667],[79.516264,9.332222],[79.516921,9.327778],[79.517578,9.323333],[79.518234,9.318889],[79.518891,9.314445],[79.519548,9.31],[79.520204,9.305556],[79.520861,9.301111],[79.521517,9.296667],[79.522174,9.292222],[79.522831,9.287778],[79.523487,9.283333],[79.524144,9.278889],[79.5248,9.274445],[79.525457,9.27],[79.526113,9.265556],[79.52677,9.261111],[79.527426,9.256667],[79.528082,9.252222],[79.528739,9.247778],[79.529395,9.243333],[79.530052,9.238889],[79.530708,9.234445],[79.531364,9.23],[79.532021,9.225556],[79.532677,9.221111],[79.533333,9.216667],[79.533333,9.212179],[79.533333,9.207692],[79.533333,9.203205],[79.533333,9.198718],[79.533333,9.194231],[79.533333,9.189744],[79.533333,9.185256],[79.533333,9.180769],[79.533333,9.176282],[79.533333,9.171795],[79.533333,9.167308],[79.533333,9.162821],[79.533333,9.158333],[79.533333,9.153846],[79.533333,9.149359],[79.533333,9.144872],[79.533333,9.140385],[79.533333,9.135897],[79.533333,9.13141],[79.533333,9.126923],[79.533333,9.122436],[79.533333,9.117949],[79.533333,9.113462],[79.533333,9.108974],[79.533333,9.104487],[79.533333,9.1]]}},{"type":"Feature","id":"gulf-of-mannar-1976","properties":{"kind":"IMBL","name":"Gulf of Mannar","treaty":"Agreement between Sri Lanka and India on the Maritime Boundary between the two Countries in the Gulf of Mannar and the Bay of Bengal and Related Matters","signed":"1976-03-23","sourceUrl":"https://www.marineregions.org/documents/LKA-IND1976MB.PDF","construction":"Great-circle arcs between treaty positions, densified every 500 m","positions":[{"id":"1m","latitude":9.1,"longitude":79.533333,"asWritten":"09 06.0 N, 79 32.0 E"},{"id":"2m","latitude":9.0,"longitude":79.521667,"asWritten":"09 00.0 N, 79 31.3 E"},{"id":"3m","latitude":8.896667,"longitude":79.488333,"asWritten":"08 53.8 N, 79 29.3 E"},{"id":"4m","latitude":8.666667,"longitude":79.303333,"asWritten":"08 40.0 N, 79 18.2 E"},{"id":"5m","latitude":8.62,"longitude":79.216667,"asWritten":"08 37.2 N, 79 13.0 E"},{"id":"6m","latitude":8.52,"longitude":79.078333,"asWritten":"08 31.2 N, 79 04.7 E"},{"id":"7m","latitude":8.37,"longitude":78.923333,"asWritten":"08 22.2 N, 78 55.4 E"},{"id":"8m","latitude":8.203333,"longitude":78.895,"asWritten":"08 12.2 N, 78 53.7 E"},{"id":"9m","latitude":7.588333,"longitude":78.761667,"asWritten":"07 35.3 N, 78 45.7 E"},{"id":"10m","latitude":7.35,"longitude":78.646667,"asWritten":"07 21.0 N, 78 38.8 E"},{"id":"11m","latitude":6.513333,"longitude":78.203333,"asWritten":"06 30.8 N, 78 12.2 E"},{"id":"12m","latitude":5.898333,"longitude":77.845,"asWritten":"05 53.9 N, 77 50.7 E"},{"id":"13m","latitude":5.0,"longitude":77.176667,"asWritten":"05 00.0 N, 77 10.6 E"}]},"geometry":{"type":"LineString","coordinates":[[79.533333,9.1],[79.532826,9.095652],[79.532319,9.091304],[79.531811,9.086957],[79.531304,9.082609],[79.530797,9.078261],[79.530289,9.073913],[79.529782,9.069565],[79.529275,9.065217],[79.528767,9.06087],[79.52826,9.056522],[79.527753,9.052174],[79.527246,9.047826],[79.526738,9.043478],[79.526231,9.03913],[79.525724,9.034783],[79.525217,9.030435],[79.52471,9.026087],[79.524202,9.021739],[79.523695,9.017391],[79.523188,9.013043],[79.522681,9.008696],[79.522174,9.004348],[79.521667,9.0],[79.520333,8.995867],[79.518999,8.991733],[79.517666,8.9876],[79.516332,8.983467],[79.514998,8.979334],[79.513665,8.9752],[79.512331,8.971067],[79.510998,8.966934],[79.509664,8.9628],[79.508331,8.958667],[79.506998,8.954534],[79.505664,8.9504],[79.504331,8.946267],[79.502998,8.942134],[79.501664,8.938],[79.500331,8.933867],[79.498998,8.929734],[79.497665,8.9256],[79.496332,8.921467],[79.494998,8.917334],[79.493665,8.9132],[79.492332,8.909067],[79.490999,8.904933],[79.489666,8.9008],[79.488333,8.896667],[79.485529,8.893182],[79.482724,8.889698],[79.479919,8.886214],[79.477115,8.88273],[79.47431,8.879246],[79.471506,8.875761],[79.468701,8.872277],[79.465897,8.868793],[79.463093,8.865308],[79.460288,8.861824],[79.457484,8.85834],[79.45468,8.854855],[79.451876,8.851371],[79.449072,8.847886],[79.446268,8.844402],[79.443464,8.840917],[79.44066,8.837433],[79.437856,8.833948],[79.435052,8.830464],[79.432248,8.826979],[79.429445,8.823495],[79.426641,8.82001],[79.423838,8.816525],[79.421034,8.813041],[79.418231,8.809556],[79.415427,8.806071],[79.412624,8.802587],[79.40982,8.799102],[79.407017,8.795617],[79.404214,8.792132],[79.401411,8.788648],[79.398608,8.785163],[79.395805,8.781678],[79.393002,8.778193],[79.390199,8.774708],[79.387396,8.771223],[79.384593,8.767738],[79.38179,8.764253],[79.378987,8.760768],[79.376185,8.757283],[79.373382,8.753798],[79.37058,8.750313],[79.367777,8.746828],[79.364975,8.743343],[79.362172,8.739858],[79.35937,8.736373],[79.356567,8.732888],[79.353765,8.729403],[79.350963,8.725918],[79.348161,8.722432],[79.345359,8.718947],[79.342557,8.715462],[79.339755,8.711977],[79.336953,8.708492],[79.334151,8.705006],[79.331349,8.701521],[79.328547,8.698036],[79.325745,8.69455],[79.322944,8.691065],[79.320142,8.687579],[79.31734,8.684094],[79.314539,8.680609],[79.311737,8.677123],[79.308936,8.673638],[79.306135,8.670152],[79.303333,8.666667],[79.299393,8.664546],[79.295454,8.662425],[79.291514,8.660304],[79.287574,8.658183],[79.283634,8.656062],[79.279695,8.653941],[79.275755,8.65182],[79.271816,8.649699],[79.267876,8.647578],[79.263937,8.645457],[79.259997,8.643336],[79.256058,8.641215],[79.252119,8.639093],[79.248179,8.636972],[79.24424,8.634851],[79.240301,8.632729],[79.236362,8.630608],[79.232423,8.628486],[79.228484,8.626365],[79.224545,8.624243],[79.220606,8.622122],[79.216667,8.62],[79.213025,8.617369],[79.209384,8.614738],[79.205743,8.612107],[79.202102,8.609476],[79.198461,8.606845],[79.19482,8.604214],[79.191179,8.601583],[79.187538,8.598951],[79.183897,8.59632],[79.180256,8.593689],[79.176615,8.591058],[79.172975,8.588426],[79.169334,8.585795],[79.165693,8.583164],[79.162053,8.580532],[79.158412,8.577901],[79.154772,8.575269],[79.151131,8.572638],[79.147491,8.570006],[79.143851,8.567375],[79.14021,8.564743],[79.13657,8.562111],[79.13293,8.55948],[79.12929,8.556848],[79.12565,8.554216],[79.12201,8.551584],[79.11837,8.548952],[79.11473,8.546321],[79.11109,8.543689],[79.10745,8.541057],[79.10381,8.538425],[79.100171,8.535793],[79.096531,8.533161],[79.092891,8.530529],[79.089252,8.527897],[79.085612,8.525264],[79.081973,8.522632],[79.078333,8.52],[79.075103,8.516876],[79.071873,8.513751],[79.068642,8.510627],[79.065412,8.507502],[79.062182,8.504378],[79.058952,8.501253],[79.055722,8.498129],[79.052492,8.495004],[79.049262,8.49188],[79.046032,8.488755],[79.042802,8.48563],[79.039572,8.482506],[79.036342,8.479381],[79.033113,8.476256],[79.029883,8.473132],[79.026653,8.470007],[79.023424,8.466882],[79.020194,8.463757],[79.016965,8.460632],[79.013735,8.457507],[79.010506,8.454382],[79.007277,8.451258],[79.004047,8.448133],[79.000818,8.445008],[78.997589,8.441883],[78.99436,8.438758],[78.991131,8.435632],[78.987902,8.432507],[78.984673,8.429382],[78.981444,8.426257],[78.978215,8.423132],[78.974987,8.420007],[78.971758,8.416882],[78.968529,8.413756],[78.965301,8.410631],[78.962072,8.407506],[78.958844,8.40438],[78.955615,8.401255],[78.952387,8.39813],[78.949158,8.395004],[78.94593,8.391879],[78.942702,8.388753],[78.939474,8.385628],[78.936245,8.382502],[78.933017,8.379377],[78.929789,8.376251],[78.926561,8.373126],[78.923333,8.37],[78.922587,8.365614],[78.921842,8.361228],[78.921096,8.356842],[78.92035,8.352456],[78.919604,8.34807],[78.918858,8.343684],[78.918112,8.339298],[78.917366,8.334912],[78.916621,8.330526],[78.915875,8.326141],[78.915129,8.321755],[78.914383,8.317369],[78.913638,8.312983],[78.912892,8.308597],[78.912146,8.304211],[78.911401,8.299825],[78.910655,8.295439],[78.909909,8.291053],[78.909164,8.286667],[78.908418,8.282281],[78.907672,8.277895],[78.906927,8.273509],[78.906181,8.269123],[78.905436,8.264737],[78.90469,8.260351],[78.903945,8.255965],[78.903199,8.251579],[78.902454,8.247193],[78.901708,8.242807],[78.900963,8.238421],[78.900217,8.234035],[78.899472,8.229649],[78.898727,8.225263],[78.897981,8.220877],[78.897236,8.216491],[78.896491,8.212105],[78.895745,8.207719],[78.895,8.203333],[78.894046,8.198941],[78.893092,8.194548],[78.892139,8.190155],[78.891185,8.185762],[78.890231,8.18137],[78.889277,8.176977],[78.888324,8.172584],[78.88737,8.168192],[78.886416,8.163799],[78.885463,8.159406],[78.884509,8.155013],[78.883556,8.150621],[78.882602,8.146228],[78.881649,8.141835],[78.880695,8.137443],[78.879742,8.13305],[78.878788,8.128657],[78.877835,8.124264],[78.876881,8.119872],[78.875928,8.115479],[78.874974,8.111086],[78.874021,8.106693],[78.873068,8.102301],[78.872114,8.097908],[78.871161,8.093515],[78.870208,8.089122],[78.869255,8.08473],[78.868301,8.080337],[78.867348,8.075944],[78.866395,8.071551],[78.865442,8.067158],[78.864489,8.062766],[78.863535,8.058373],[78.862582,8.05398],[78.861629,8.049587],[78.860676,8.045195],[78.859723,8.040802],[78.85877,8.036409],[78.857817,8.032016],[78.856864,8.027623],[78.855911,8.023231],[78.854958,8.018838],[78.854005,8.014445],[78.853052,8.010052],[78.852099,8.005659],[78.851146,8.001267],[78.850194,7.996874],[78.849241,7.992481],[78.848288,7.988088],[78.847335,7.983695],[78.846382,7.979303],[78.84543,7.97491],[78.844477,7.970517],[78.843524,7.966124],[78.842572,7.961731],[78.841619,7.957338],[78.840666,7.952946],[78.839714,7.948553],[78.838761,7.94416],[78.837808,7.939767],[78.836856,7.935374],[78.835903,7.930981],[78.834951,7.926589],[78.833998,7.922196],[78.833046,7.917803],[78.832093,7.91341],[78.831141,7.909017],[78.830188,7.904624],[78.829236,7.900231],[78.828284,7.895839],[78.827331,7.891446],[78.826379,7.887053],[78.825427,7.88266],[78.824474,7.878267],[78.823522,7.873874],[78.82257,7.869481],[78.821618,7.865089],[78.820665,7.860696],[78.819713,7.856303],[78.818761,7.85191],[78.817809,7.847517],[78.816857,7.843124],[78.815905,7.838731],[78.814952,7.834338],[78.814,7.829945],[78.813048,7.825553],[78.812096,7.82116],[78.811144,7.816767],[78.810192,7.812374],[78.80924,7.807981],[78.808288,7.803588],[78.807336,7.799195],[78.806385,7.794802],[78.805433,7.790409],[78.804481,7.786016],[78.803529,7.781624],[78.802577,7.777231],[78.801625,7.772838],[78.800673,7.768445],[78.799722,7.764052],[78.79877,7.759659],[78.797818,7.755266],[78.796866,7.750873],[78.795915,7.74648],[78.794963,7.742087],[78.794011,7.737694],[78.79306,7.733301],[78.792108,7.728908],[78.791157,7.724516],[78.790205,7.720123],[78.789253,7.71573],[78.788302,7.711337],[78.78735,7.706944],[78.786399,7.702551],[78.785447,7.698158],[78.784496,7.693765],[78.783544,7.689372],[78.782593,7.684979],[78.781642,7.680586],[78.78069,7.676193],[78.779739,7.6718],[78.778788,7.667407],[78.777836,7.663014],[78.776885,7.658621],[78.775934,7.654228],[78.774982,7.649835],[78.774031,7.645442],[78.77308,7.641049],[78.772129,7.636656],[78.771177,7.632263],[78.770226,7.62787],[78.769275,7.623477],[78.768324,7.619084],[78.767373,7.614691],[78.766422,7.610298],[78.765471,7.605905],[78.76452,7.601512],[78.763569,7.597119],[78.762618,7.592726],[78.761667,7.588333],[78.759716,7.584294],[78.757766,7.580255],[78.755816,7.576215],[78.753866,7.572176],[78.751916,7.568137],[78.749966,7.564097],[78.748016,7.560058],[78.746066,7.556019],[78.744116,7.551979],[78.742166,7.54794],[78.740216,7.543901],[78.738267,7.539861],[78.736317,7.535822],[78.734367,7.531782],[78.732417,7.527743],[78.730468,7.523704],[78.728518,7.519664],[78.726569,7.515625],[78.724619,7.511585],[78.72267,7.507546],[78.72072,7.503506],[78.718771,7.499467],[78.716821,7.495427],[78.714872,7.491388],[78.712923,7.487348],[78.710973,7.483309],[78.709024,7.479269],[78.707075,7.47523],[78.705126,7.47119],[78.703176,7.467151],[78.701227,7.463111],[78.699278,7.459071],[78.697329,7.455032],[78.69538,7.450992],[78.693431,7.446953],[78.691482,7.442913],[78.689533,7.438874],[78.687585,7.434834],[78.685636,7.430794],[78.683687,7.426755],[78.681738,7.422715],[78.679789,7.418675],[78.677841,7.414636],[78.675892,7.410596],[78.673943,7.406556],[78.671995,7.402517],[78.670046,7.398477],[78.668098,7.394437],[78.666149,7.390398],[78.664201,7.386358],[78.662253,7.382318],[78.660304,7.378278],[78.658356,7.374239],[78.656408,7.370199],[78.654459,7.366159],[78.652511,7.362119],[78.650563,7.35808],[78.648615,7.35404],[78.646667,7.35],[78.644562,7.346036],[78.642457,7.342071],[78.640352,7.338107],[78.638247,7.334143],[78.636143,7.330179],[78.634038,7.326214],[78.631933,7.32225],[78.629829,7.318286],[78.627724,7.314321],[78.625619,7.310357],[78.623515,7.306393],[78.62141,7.302428],[78.619306,7.298464],[78.617202,7.2945],[78.615097,7.290535],[78.612993,7.286571],[78.610889,7.282606],[78.608784,7.278642],[78.60668,7.274677],[78.604576,7.270713],[78.602472,7.266749],[78.600368,7.262784],[78.598264,7.25882],[78.59616,7.254855],[78.594056,7.250891],[78.591952,7.246926],[78.589848,7.242962],[78.587744,7.238997],[78.58564,7.235033],[78.583536,7.231068],[78.581432,7.227104],[78.579329,7.223139],[78.577225,7.219174],[78.575121,7.21521],[78.573018,7.211245],[78.570914,7.207281],[78.56881,7.203316],[78.566707,7.199351],[78.564603,7.195387],[78.5625,7.191422],[78.560397,7.187458],[78.558293,7.183493],[78.55619,7.179528],[78.554087,7.175564],[78.551983,7.171599],[78.54988,7.167634],[78.547777,7.163669],[78.545674,7.159705],[78.543571,7.15574],[78.541468,7.151775],[78.539364,7.147811],[78.537261,7.143846],[78.535158,7.139881],[78.533056,7.135916],[78.530953,7.131952],[78.52885,7.127987],[78.526747,7.124022],[78.524644,7.120057],[78.522541,7.116092],[78.520439,7.112128],[78.518336,7.108163],[78.516233,7.104198],[78.514131,7.100233],[78.512028,7.096268],[78.509926,7.092303],[78.507823,7.088338],[78.505721,7.084373],[78.503618,7.080409],[78.501516,7.076444],[78.499414,7.072479],[78.497311,7.068514],[78.495209,7.064549],[78.493107,7.060584],[78.491004,7.056619],[78.488902,7.052654],[78.4868,7.048689],[78.484698,7.044724],[78.482596,7.040759],[78.480494,7.036794],[78.478392,7.032829],[78.47629,7.028864],[78.474188,7.024899],[78.472086,7.020934],[78.469984,7.016969],[78.467883,7.013004],[78.465781,7.009039],[78.463679,7.005074],[78.461577,7.001109],[78.459476,6.997143],[78.457374,6.993178],[78.455272,6.989213],[78.453171,6.985248],[78.451069,6.981283],[78.448968,6.977318],[78.446866,6.973353],[78.444765,6.969388],[78.442664,6.965422],[78.440562,6.961457],[78.438461,6.957492],[78.43636,6.953527],[78.434258,6.949562],[78.432157,6.945596],[78.430056,6.941631],[78.427955,6.937666],[78.425854,6.933701],[78.423753,6.929735],[78.421652,6.92577],[78.419551,6.921805],[78.41745,6.91784],[78.415349,6.913874],[78.413248,6.909909],[78.411147,6.905944],[78.409046,6.901978],[78.406945,6.898013],[78.404845,6.894048],[78.402744,6.890082],[78.400643,6.886117],[78.398543,6.882152],[78.396442,6.878186],[78.394341,6.874221],[78.392241,6.870255],[78.39014,6.86629],[78.38804,6.862325],[78.38594,6.858359],[78.383839,6.854394],[78.381739,6.850428],[78.379638,6.846463],[78.377538,6.842497],[78.375438,6.838532],[78.373338,6.834567],[78.371237,6.830601],[78.369137,6.826636],[78.367037,6.82267],[78.364937,6.818705],[78.362837,6.814739],[78.360737,6.810773],[78.358637,6.806808],[78.356537,6.802842],[78.354437,6.798877],[78.352337,6.794911],[78.350237,6.790946],[78.348138,6.78698],[78.346038,6.783015],[78.343938,6.779049],[78.341838,6.775083],[78.339739,6.771118],[78.337639,6.767152],[78.33554,6.763186],[78.33344,6.759221],[78.33134,6.755255],[78.329241,6.751289],[78.327141,6.747324],[78.325042,6.743358],[78.322943,6.739392],[78.320843,6.735427],[78.318744,6.731461],[78.316645,6.727495],[78.314545,6.72353],[78.312446,6.719564],[78.310347,6.715598],[78.308248,6.711632],[78.306149,6.707667],[78.30405,6.703701],[78.301951,6.699735],[78.299852,6.695769],[78.297753,6.691803],[78.295654,6.687838],[78.293555,6.683872],[78.291456,6.679906],[78.289357,6.67594],[78.287258,6.671974],[78.285159,6.668008],[78.283061,6.664043],[78.280962,6.660077],[78.278863,6.656111],[78.276765,6.652145],[78.274666,6.648179],[78.272567,6.644213],[78.270469,6.640247],[78.26837,6.636281],[78.266272,6.632315],[78.264174,6.628349],[78.262075,6.624383],[78.259977,6.620418],[78.257878,6.616452],[78.25578,6.612486],[78.253682,6.60852],[78.251584,6.604554],[78.249485,6.600588],[78.247387,6.596622],[78.245289,6.592656],[78.243191,6.58869],[78.241093,6.584723],[78.238995,6.580757],[78.236897,6.576791],[78.234799,6.572825],[78.232701,6.568859],[78.230603,6.564893],[78.228505,6.560927],[78.226407,6.556961],[78.22431,6.552995],[78.222212,6.549029],[78.220114,6.545063],[78.218016,6.541097],[78.215919,6.53713],[78.213821,6.533164],[78.211723,6.529198],[78.209626,6.525232],[78.207528,6.521266],[78.205431,6.5173],[78.203333,6.513333],[78.201077,6.509466],[78.198821,6.505599],[78.196564,6.501732],[78.194308,6.497865],[78.192052,6.493997],[78.189796,6.49013],[78.18754,6.486263],[78.185284,6.482396],[78.183028,6.478529],[78.180772,6.474661],[78.178516,6.470794],[78.17626,6.466927],[78.174004,6.463059],[78.171748,6.459192],[78.169492,6.455325],[78.167236,6.451458],[78.16498,6.44759],[78.162725,6.443723],[78.160469,6.439856],[78.158213,6.435988],[78.155958,6.432121],[78.153702,6.428254],[78.151447,6.424386],[78.149191,6.420519],[78.146936,6.416651],[78.14468,6.412784],[78.142425,6.408917],[78.140169,6.405049],[78.137914,6.401182],[78.135659,6.397314],[78.133403,6.393447],[78.131148,6.389579],[78.128893,6.385712],[78.126638,6.381844],[78.124382,6.377977],[78.122127,6.374109],[78.119872,6.370242],[78.117617,6.366374],[78.115362,6.362507],[78.113107,6.358639],[78.110852,6.354772],[78.108597,6.350904],[78.106342,6.347037],[78.104088,6.343169],[78.101833,6.339301],[78.099578,6.335434],[78.097323,6.331566],[78.095068,6.327699],[78.092814,6.323831],[78.090559,6.319963],[78.088305,6.316096],[78.08605,6.312228],[78.083795,6.30836],[78.081541,6.304493],[78.079286,6.300625],[78.077032,6.296757],[78.074778,6.292889],[78.072523,6.289022],[78.070269,6.285154],[78.068015,6.281286],[78.06576,6.277419],[78.063506,6.273551],[78.061252,6.269683],[78.058998,6.265815],[78.056743,6.261947],[78.054489,6.25808],[78.052235,6.254212],[78.049981,6.250344],[78.047727,6.246476],[78.045473,6.242608],[78.043219,6.238741],[78.040965,6.234873],[78.038712,6.231005],[78.036458,6.227137],[78.034204,6.223269],[78.03195,6.219401],[78.029696,6.215533],[78.027443,6.211665],[78.025189,6.207797],[78.022935,6.203929],[78.020682,6.200062],[78.018428,6.196194],[78.016175,6.192326],[78.013921,6.188458],[78.011668,6.18459],[78.009414,6.180722],[78.007161,6.176854],[78.004907,6.172986],[78.002654,6.169118],[78.000401,6.16525],[77.998147,6.161382],[77.995894,6.157514],[77.993641,6.153646],[77.991388,6.149777],[77.989135,6.145909],[77.986881,6.142041],[77.984628,6.138173],[77.982375,6.134305],[77.980122,6.130437],[77.977869,6.126569],[77.975616,6.122701],[77.973363,6.118833],[77.971111,6.114964],[77.968858,6.111096],[77.966605,6.107228],[77.964352,6.10336],[77.962099,6.099492],[77.959847,6.095624],[77.957594,6.091755],[77.955341,6.087887],[77.953089,6.084019],[77.950836,6.080151],[77.948583,6.076282],[77.946331,6.072414],[77.944078,6.068546],[77.941826,6.064678],[77.939573,6.060809],[77.937321,6.056941],[77.935069,6.053073],[77.932816,6.049204],[77.930564,6.045336],[77.928312,6.041468],[77.92606,6.0376],[77.923807,6.033731],[77.921555,6.029863],[77.919303,6.025994],[77.917051,6.022126],[77.914799,6.018258],[77.912547,6.014389],[77.910295,6.010521],[77.908043,6.006652],[77.905791,6.002784],[77.903539,5.998916],[77.901287,5.995047],[77.899035,5.991179],[77.896783,5.98731],[77.894531,5.983442],[77.89228,5.979573],[77.890028,5.975705],[77.887776,5.971836],[77.885525,5.967968],[77.883273,5.964099],[77.881021,5.960231],[77.87877,5.956362],[77.876518,5.952494],[77.874267,5.948625],[77.872015,5.944757],[77.869764,5.940888],[77.867512,5.93702],[77.865261,5.933151],[77.86301,5.929282],[77.860758,5.925414],[77.858507,5.921545],[77.856256,5.917677],[77.854005,5.913808],[77.851753,5.909939],[77.849502,5.906071],[77.847251,5.902202],[77.845,5.898333],[77.842312,5.894727],[77.839624,5.891121],[77.836936,5.887515],[77.834247,5.883908],[77.831559,5.880302],[77.828871,5.876696],[77.826183,5.873089],[77.823496,5.869483],[77.820808,5.865877],[77.81812,5.86227],[77.815432,5.858664],[77.812744,5.855057],[77.810056,5.851451],[77.807369,5.847845],[77.804681,5.844238],[77.801993,5.840632],[77.799306,5.837025],[77.796618,5.833419],[77.793931,5.829812],[77.791243,5.826206],[77.788556,5.822599],[77.785868,5.818993],[77.783181,5.815386],[77.780493,5.81178],[77.777806,5.808173],[77.775119,5.804567],[77.772431,5.80096],[77.769744,5.797354],[77.767057,5.793747],[77.76437,5.79014],[77.761683,5.786534],[77.758995,5.782927],[77.756308,5.77932],[77.753621,5.775714],[77.750934,5.772107],[77.748247,5.7685],[77.74556,5.764894],[77.742874,5.761287],[77.740187,5.75768],[77.7375,5.754073],[77.734813,5.750467],[77.732126,5.74686],[77.72944,5.743253],[77.726753,5.739646],[77.724066,5.736039],[77.72138,5.732433],[77.718693,5.728826],[77.716006,5.725219],[77.71332,5.721612],[77.710633,5.718005],[77.707947,5.714398],[77.705261,5.710791],[77.702574,5.707185],[77.699888,5.703578],[77.697201,5.699971],[77.694515,5.696364],[77.691829,5.692757],[77.689143,5.68915],[77.686456,5.685543],[77.68377,5.681936],[77.681084,5.678329],[77.678398,5.674722],[77.675712,5.671115],[77.673026,5.667508],[77.67034,5.663901],[77.667654,5.660294],[77.664968,5.656687],[77.662282,5.653079],[77.659596,5.649472],[77.656911,5.645865],[77.654225,5.642258],[77.651539,5.638651],[77.648853,5.635044],[77.646168,5.631437],[77.643482,5.627829],[77.640796,5.624222],[77.638111,5.620615],[77.635425,5.617008],[77.63274,5.613401],[77.630054,5.609793],[77.627369,5.606186],[77.624683,5.602579],[77.621998,5.598972],[77.619313,5.595364],[77.616627,5.591757],[77.613942,5.58815],[77.611257,5.584542],[77.608572,5.580935],[77.605886,5.577328],[77.603201,5.57372],[77.600516,5.570113],[77.597831,5.566505],[77.595146,5.562898],[77.592461,5.559291],[77.589776,5.555683],[77.587091,5.552076],[77.584406,5.548468],[77.581721,5.544861],[77.579036,5.541253],[77.576351,5.537646],[77.573667,5.534038],[77.570982,5.530431],[77.568297,5.526823],[77.565613,5.523216],[77.562928,5.519608],[77.560243,5.516001],[77.557559,5.512393],[77.554874,5.508786],[77.55219,5.505178],[77.549505,5.50157],[77.546821,5.497963],[77.544136,5.494355],[77.541452,5.490748],[77.538767,5.48714],[77.536083,5.483532],[77.533399,5.479925],[77.530714,5.476317],[77.52803,5.472709],[77.525346,5.469101],[77.522662,5.465494],[77.519978,5.461886],[77.517294,5.458278],[77.514609,5.45467],[77.511925,5.451063],[77.509241,5.447455],[77.506557,5.443847],[77.503873,5.440239],[77.50119,5.436631],[77.498506,5.433024],[77.495822,5.429416],[77.493138,5.425808],[77.490454,5.4222],[77.48777,5.418592],[77.485087,5.414984],[77.482403,5.411376],[77.479719,5.407768],[77.477036,5.404161],[77.474352,5.400553],[77.471669,5.396945],[77.468985,5.393337],[77.466302,5.389729],[77.463618,5.386121],[77.460935,5.382513],[77.458251,5.378905],[77.455568,5.375297],[77.452885,5.371689],[77.450201,5.368081],[77.447518,5.364473],[77.444835,5.360865],[77.442152,5.357256],[77.439468,5.353648],[77.436785,5.35004],[77.434102,5.346432],[77.431419,5.342824],[77.428736,5.339216],[77.426053,5.335608],[77.42337,5.332],[77.420687,5.328391],[77.418004,5.324783],[77.415321,5.321175],[77.412638,5.317567],[77.409955,5.313959],[77.407273,5.31035],[77.40459,5.306742],[77.401907,5.303134],[77.399224,5.299526],[77.396542,5.295917],[77.393859,5.292309],[77.391176,5.288701],[77.388494,5.285092],[77.385811,5.281484],[77.383129,5.277876],[77.380446,5.274267],[77.377764,5.270659],[77.375081,5.267051],[77.372399,5.263442],[77.369717,5.259834],[77.367034,5.256225],[77.364352,5.252617],[77.36167,5.249009],[77.358987,5.2454],[77.356305,5.241792],[77.353623,5.238183],[77.350941,5.234575],[77.348259,5.230966],[77.345577,5.227358],[77.342895,5.223749],[77.340213,5.220141],[77.337531,5.216532],[77.334849,5.212924],[77.332167,5.209315],[77.329485,5.205707],[77.326803,5.202098],[77.324121,5.198489],[77.321439,5.194881],[77.318758,5.191272],[77.316076,5.187664],[77.313394,5.184055],[77.310712,5.180446],[77.308031,5.176838],[77.305349,5.173229],[77.302668,5.16962],[77.299986,5.166012],[77.297304,5.162403],[77.294623,5.158794],[77.291941,5.155186],[77.28926,5.151577],[77.286579,5.147968],[77.283897,5.144359],[77.281216,5.140751],[77.278535,5.137142],[77.275853,5.133533],[77.273172,5.129924],[77.270491,5.126315],[77.26781,5.122707],[77.265128,5.119098],[77.262447,5.115489],[77.259766,5.11188],[77.257085,5.108271],[77.254404,5.104662],[77.251723,5.101053],[77.249042,5.097444],[77.246361,5.093836],[77.24368,5.090227],[77.240999,5.086618],[77.238318,5.083009],[77.235638,5.0794],[77.232957,5.075791],[77.230276,5.072182],[77.227595,5.068573],[77.224914,5.064964],[77.222234,5.061355],[77.219553,5.057746],[77.216873,5.054137],[77.214192,5.050528],[77.211511,5.046919],[77.208831,5.04331],[77.20615,5.039701],[77.20347,5.036091],[77.200789,5.032482],[77.198109,5.028873],[77.195429,5.025264],[77.192748,5.021655],[77.190068,5.018046],[77.187388,5.014437],[77.184707,5.010828],[77.182027,5.007218],[77.179347,5.003609],[77.176667,5.0]]}},{"type":"Feature","id":"gulf-of-mannar-extension-1976","properties":{"kind":"IMBL","name":"Gulf of Mannar extension to the India-Sri Lanka-Maldives trijunction","treaty":"Supplementary Agreement between Sri Lanka and India on the Extension of the Maritime Boundary in the Gulf of Mannar from Position 13 m to the Trijunction Point","signed":"1976-11-22","sourceUrl":"https://www.marineregions.org/documents/LKA-IND1976TP.PDF","construction":"Great-circle arcs between treaty positions, densified every 500 m","positions":[{"id":"13m","latitude":5.0,"longitude":77.176667,"asWritten":"05 00.0 N, 77 10.6 E"},{"id":"T","latitude":4.784,"longitude":77.023333,"asWritten":"04 47.04 N, 77 01.40 E"}]},"geometry":{"type":"LineString","coordinates":[[77.176667,5.0],[77.174067,4.996339],[77.171467,4.992679],[77.168868,4.989018],[77.166268,4.985357],[77.163668,4.981696],[77.161069,4.978036],[77.158469,4.974375],[77.15587,4.970714],[77.15327,4.967053],[77.150671,4.963392],[77.148072,4.959731],[77.145472,4.956071],[77.142873,4.95241],[77.140273,4.948749],[77.137674,4.945088],[77.135075,4.941427],[77.132476,4.937766],[77.129876,4.934105],[77.127277,4.930444],[77.124678,4.926784],[77.122079,4.923123],[77.11948,4.919462],[77.116881,4.915801],[77.114282,4.91214],[77.111683,4.908479],[77.109084,4.904818],[77.106485,4.901157],[77.103886,4.897496],[77.101287,4.893835],[77.098688,4.890174],[77.096089,4.886513],[77.093491,4.882852],[77.090892,4.879191],[77.088293,4.87553],[77.085694,4.871869],[77.083096,4.868208],[77.080497,4.864546],[77.077898,4.860885],[77.0753,4.857224],[77.072701,4.853563],[77.070103,4.849902],[77.067504,4.846241],[77.064906,4.84258],[77.062307,4.838919],[77.059709,4.835257],[77.05711,4.831596],[77.054512,4.827935],[77.051913,4.824274],[77.049315,4.820613],[77.046717,4.816951],[77.044119,4.81329],[77.04152,4.809629],[77.038922,4.805968],[77.036324,4.802306],[77.033726,4.798645],[77.031128,4.794984],[77.028529,4.791323],[77.025931,4.787661],[77.023333,4.784]]}},{"type":"Feature","id":"bay-of-bengal-1976","properties":{"kind":"IMBL","name":"Bay of Bengal","treaty":"Agreement between Sri Lanka and India on the Maritime Boundary between the two Countries in the Gulf of Mannar and the Bay of Bengal and Related Matters","signed":"1976-03-23","sourceUrl":"https://www.marineregions.org/documents/LKA-IND1976MB.PDF","construction":"Great-circle arcs between treaty positions, densified every 500 m","positions":[{"id":"1b","latitude":10.083333,"longitude":80.05,"asWritten":"10 05.0 N, 80 03.0 E"},{"id":"1ba","latitude":10.096667,"longitude":80.083333,"asWritten":"10 05.8 N, 80 05.0 E"},{"id":"1bb","latitude":10.14,"longitude":80.158333,"asWritten":"10 08.4 N, 80 09.5 E"},{"id":"2b","latitude":10.55,"longitude":80.766667,"asWritten":"10 33.0 N, 80 46.0 E"},{"id":"3b","latitude":10.695,"longitude":81.041667,"asWritten":"10 41.7 N, 81 02.5 E"},{"id":"4b","latitude":11.045,"longitude":81.933333,"asWritten":"11 02.7 N, 81 56.0 E"},{"id":"5b","latitude":11.266667,"longitude":82.406667,"asWritten":"11 16.0 N, 82 24.4 E"},{"id":"6b","latitude":11.443333,"longitude":83.366667,"asWritten":"11 26.6 N, 83 22.0 E"}]},"geometry":{"type":"LineString","coordinates":[[80.05,10.083333],[80.054167,10.085],[80.058333,10.086667],[80.0625,10.088334],[80.066666,10.09],[80.070833,10.091667],[80.075,10.093334],[80.079167,10.095],[80.083333,10.096667],[80.087083,10.098834],[80.090832,10.101001],[80.094582,10.103168],[80.098332,10.105335],[80.102081,10.107502],[80.105831,10.109668],[80.109581,10.111835],[80.113331,10.114002],[80.117081,10.116169],[80.120831,10.118335],[80.124581,10.120502],[80.128331,10.122669],[80.132081,10.124835],[80.135831,10.127002],[80.139581,10.129168],[80.143332,10.131335],[80.147082,10.133501],[80.150832,10.135667],[80.154583,10.137834],[80.158333,10.14],[80.162084,10.142534],[80.165834,10.145069],[80.169584,10.147603],[80.173335,10.150137],[80.177085,10.152671],[80.180836,10.155205],[80.184587,10.157739],[80.188337,10.160274],[80.192088,10.162808],[80.195839,10.165341],[80.19959,10.167875],[80.203341,10.170409],[80.207092,10.172943],[80.210843,10.175477],[80.214594,10.178011],[80.218345,10.180544],[80.222097,10.183078],[80.225848,10.185612],[80.229599,10.188145],[80.233351,10.190679],[80.237102,10.193212],[80.240854,10.195746],[80.244605,10.198279],[80.248357,10.200812],[80.252109,10.203346],[80.255861,10.205879],[80.259612,10.208412],[80.263364,10.210945],[80.267116,10.213479],[80.270868,10.216012],[80.27462,10.218545],[80.278372,10.221078],[80.282125,10.223611],[80.285877,10.226144],[80.289629,10.228676],[80.293382,10.231209],[80.297134,10.233742],[80.300887,10.236275],[80.304639,10.238808],[80.308392,10.24134],[80.312145,10.243873],[80.315897,10.246405],[80.31965,10.248938],[80.323403,10.251471],[80.327156,10.254003],[80.330909,10.256535],[80.334662,10.259068],[80.338415,10.2616],[80.342168,10.264132],[80.345921,10.266665],[80.349675,10.269197],[80.353428,10.271729],[80.357181,10.274261],[80.360935,10.276793],[80.364688,10.279325],[80.368442,10.281857],[80.372196,10.284389],[80.375949,10.286921],[80.379703,10.289453],[80.383457,10.291985],[80.387211,10.294516],[80.390965,10.297048],[80.394719,10.29958],[80.398473,10.302111],[80.402227,10.304643],[80.405981,10.307175],[80.409735,10.309706],[80.41349,10.312238],[80.417244,10.314769],[80.420999,10.3173],[80.424753,10.319832],[80.428508,10.322363],[80.432262,10.324894],[80.436017,10.327425],[80.439772,10.329957],[80.443526,10.332488],[80.447281,10.335019],[80.451036,10.33755],[80.454791,10.340081],[80.458546,10.342612],[80.462301,10.345143],[80.466056,10.347673],[80.469812,10.350204],[80.473567,10.352735],[80.477322,10.355266],[80.481078,10.357796],[80.484833,10.360327],[80.488589,10.362858],[80.492344,10.365388],[80.4961,10.367919],[80.499856,10.370449],[80.503611,10.37298],[80.507367,10.37551],[80.511123,10.37804],[80.514879,10.380571],[80.518635,10.383101],[80.522391,10.385631],[80.526147,10.388161],[80.529903,10.390691],[80.53366,10.393221],[80.537416,10.395751],[80.541172,10.398281],[80.544929,10.400811],[80.548685,10.403341],[80.552442,10.405871],[80.556198,10.408401],[80.559955,10.410931],[80.563712,10.41346],[80.567469,10.41599],[80.571226,10.41852],[80.574982,10.421049],[80.578739,10.423579],[80.582497,10.426108],[80.586254,10.428638],[80.590011,10.431167],[80.593768,10.433697],[80.597525,10.436226],[80.601283,10.438755],[80.60504,10.441284],[80.608798,10.443814],[80.612555,10.446343],[80.616313,10.448872],[80.62007,10.451401],[80.623828,10.45393],[80.627586,10.456459],[80.631344,10.458988],[80.635102,10.461517],[80.638859,10.464046],[80.642618,10.466574],[80.646376,10.469103],[80.650134,10.471632],[80.653892,10.474161],[80.65765,10.476689],[80.661409,10.479218],[80.665167,10.481746],[80.668925,10.484275],[80.672684,10.486803],[80.676442,10.489332],[80.680201,10.49186],[80.68396,10.494388],[80.687719,10.496917],[80.691477,10.499445],[80.695236,10.501973],[80.698995,10.504501],[80.702754,10.507029],[80.706513,10.509557],[80.710272,10.512085],[80.714032,10.514613],[80.717791,10.517141],[80.72155,10.519669],[80.725309,10.522197],[80.729069,10.524725],[80.732828,10.527252],[80.736588,10.52978],[80.740348,10.532308],[80.744107,10.534835],[80.747867,10.537363],[80.751627,10.53989],[80.755387,10.542418],[80.759147,10.544945],[80.762907,10.547473],[80.766667,10.55],[80.77065,10.552103],[80.774634,10.554206],[80.778618,10.556309],[80.782602,10.558412],[80.786585,10.560515],[80.790569,10.562618],[80.794553,10.564721],[80.798537,10.566824],[80.802521,10.568927],[80.806506,10.571029],[80.81049,10.573132],[80.814474,10.575235],[80.818458,10.577337],[80.822443,10.57944],[80.826427,10.581542],[80.830412,10.583644],[80.834396,10.585747],[80.838381,10.587849],[80.842365,10.589951],[80.84635,10.592054],[80.850335,10.594156],[80.85432,10.596258],[80.858304,10.59836],[80.862289,10.600462],[80.866274,10.602564],[80.870259,10.604666],[80.874244,10.606768],[80.878229,10.608869],[80.882215,10.610971],[80.8862,10.613073],[80.890185,10.615175],[80.89417,10.617276],[80.898156,10.619378],[80.902141,10.621479],[80.906127,10.623581],[80.910112,10.625682],[80.914098,10.627783],[80.918084,10.629885],[80.922069,10.631986],[80.926055,10.634087],[80.930041,10.636188],[80.934027,10.638289],[80.938013,10.64039],[80.941999,10.642491],[80.945985,10.644592],[80.949971,10.646693],[80.953957,10.648794],[80.957943,10.650895],[80.96193,10.652996],[80.965916,10.655096],[80.969902,10.657197],[80.973889,10.659298],[80.977875,10.661398],[80.981862,10.663499],[80.985848,10.665599],[80.989835,10.667699],[80.993822,10.6698],[80.997809,10.6719],[81.001795,10.674],[81.005782,10.676101],[81.009769,10.678201],[81.013756,10.680301],[81.017743,10.682401],[81.02173,10.684501],[81.025717,10.686601],[81.029705,10.688701],[81.033692,10.6908],[81.037679,10.6929],[81.041667,10.695],[81.045908,10.696673],[81.050149,10.698345],[81.05439,10.700018],[81.058631,10.701691],[81.062873,10.703363],[81.067114,10.705035],[81.071355,10.706708],[81.075597,10.70838],[81.079838,10.710052],[81.08408,10.711725],[81.088321,10.713397],[81.092563,10.715069],[81.096805,10.716741],[81.101046,10.718413],[81.105288,10.720085],[81.10953,10.721757],[81.113772,10.723428],[81.118014,10.7251],[81.122256,10.726772],[81.126498,10.728444],[81.13074,10.730115],[81.134982,10.731787],[81.139224,10.733458],[81.143466,10.735129],[81.147708,10.736801],[81.15195,10.738472],[81.156193,10.740143],[81.160435,10.741815],[81.164678,10.743486],[81.16892,10.745157],[81.173162,10.746828],[81.177405,10.748499],[81.181648,10.75017],[81.18589,10.75184],[81.190133,10.753511],[81.194376,10.755182],[81.198618,10.756852],[81.202861,10.758523],[81.207104,10.760194],[81.211347,10.761864],[81.21559,10.763535],[81.219833,10.765205],[81.224076,10.766875],[81.228319,10.768545],[81.232562,10.770216],[81.236806,10.771886],[81.241049,10.773556],[81.245292,10.775226],[81.249536,10.776896],[81.253779,10.778566],[81.258022,10.780236],[81.262266,10.781905],[81.266509,10.783575],[81.270753,10.785245],[81.274997,10.786914],[81.27924,10.788584],[81.283484,10.790253],[81.287728,10.791923],[81.291972,10.793592],[81.296216,10.795262],[81.300459,10.796931],[81.304703,10.7986],[81.308947,10.800269],[81.313191,10.801938],[81.317436,10.803607],[81.32168,10.805276],[81.325924,10.806945],[81.330168,10.808614],[81.334412,10.810283],[81.338657,10.811952],[81.342901,10.81362],[81.347146,10.815289],[81.35139,10.816958],[81.355635,10.818626],[81.359879,10.820295],[81.364124,10.821963],[81.368369,10.823631],[81.372613,10.8253],[81.376858,10.826968],[81.381103,10.828636],[81.385348,10.830304],[81.389593,10.831972],[81.393838,10.83364],[81.398083,10.835308],[81.402328,10.836976],[81.406573,10.838644],[81.410818,10.840311],[81.415063,10.841979],[81.419308,10.843647],[81.423554,10.845314],[81.427799,10.846982],[81.432044,10.848649],[81.43629,10.850317],[81.440535,10.851984],[81.444781,10.853651],[81.449026,10.855319],[81.453272,10.856986],[81.457518,10.858653],[81.461763,10.86032],[81.466009,10.861987],[81.470255,10.863654],[81.474501,10.865321],[81.478747,10.866988],[81.482993,10.868655],[81.487239,10.870321],[81.491485,10.871988],[81.495731,10.873654],[81.499977,10.875321],[81.504223,10.876988],[81.508469,10.878654],[81.512715,10.88032],[81.516962,10.881987],[81.521208,10.883653],[81.525455,10.885319],[81.529701,10.886985],[81.533948,10.888651],[81.538194,10.890317],[81.542441,10.891983],[81.546687,10.893649],[81.550934,10.895315],[81.555181,10.896981],[81.559428,10.898646],[81.563675,10.900312],[81.567921,10.901978],[81.572168,10.903643],[81.576415,10.905309],[81.580662,10.906974],[81.58491,10.90864],[81.589157,10.910305],[81.593404,10.91197],[81.597651,10.913635],[81.601898,10.9153],[81.606146,10.916966],[81.610393,10.918631],[81.61464,10.920296],[81.618888,10.92196],[81.623135,10.923625],[81.627383,10.92529],[81.631631,10.926955],[81.635878,10.928619],[81.640126,10.930284],[81.644374,10.931949],[81.648622,10.933613],[81.652869,10.935278],[81.657117,10.936942],[81.661365,10.938606],[81.665613,10.94027],[81.669861,10.941935],[81.674109,10.943599],[81.678358,10.945263],[81.682606,10.946927],[81.686854,10.948591],[81.691102,10.950255],[81.695351,10.951919],[81.699599,10.953582],[81.703847,10.955246],[81.708096,10.95691],[81.712344,10.958573],[81.716593,10.960237],[81.720842,10.9619],[81.72509,10.963564],[81.729339,10.965227],[81.733588,10.966891],[81.737836,10.968554],[81.742085,10.970217],[81.746334,10.97188],[81.750583,10.973543],[81.754832,10.975206],[81.759081,10.976869],[81.76333,10.978532],[81.767579,10.980195],[81.771829,10.981858],[81.776078,10.983521],[81.780327,10.985183],[81.784576,10.986846],[81.788826,10.988508],[81.793075,10.990171],[81.797325,10.991833],[81.801574,10.993496],[81.805824,10.995158],[81.810073,10.99682],[81.814323,10.998482],[81.818573,11.000145],[81.822823,11.001807],[81.827072,11.003469],[81.831322,11.005131],[81.835572,11.006793],[81.839822,11.008454],[81.844072,11.010116],[81.848322,11.011778],[81.852572,11.01344],[81.856822,11.015101],[81.861073,11.016763],[81.865323,11.018424],[81.869573,11.020086],[81.873824,11.021747],[81.878074,11.023408],[81.882324,11.02507],[81.886575,11.026731],[81.890825,11.028392],[81.895076,11.030053],[81.899327,11.031714],[81.903577,11.033375],[81.907828,11.035036],[81.912079,11.036697],[81.91633,11.038357],[81.92058,11.040018],[81.924831,11.041679],[81.929082,11.043339],[81.933333,11.045],[81.937446,11.046931],[81.941559,11.048861],[81.945672,11.050792],[81.949785,11.052723],[81.953898,11.054653],[81.958011,11.056584],[81.962124,11.058514],[81.966238,11.060444],[81.970351,11.062375],[81.974464,11.064305],[81.978578,11.066235],[81.982691,11.068165],[81.986804,11.070095],[81.990918,11.072025],[81.995032,11.073955],[81.999145,11.075885],[82.003259,11.077815],[82.007373,11.079745],[82.011487,11.081674],[82.0156,11.083604],[82.019714,11.085534],[82.023828,11.087463],[82.027942,11.089393],[82.032056,11.091322],[82.036171,11.093251],[82.040285,11.095181],[82.044399,11.09711],[82.048513,11.099039],[82.052628,11.100968],[82.056742,11.102898],[82.060857,11.104827],[82.064971,11.106756],[82.069086,11.108685],[82.0732,11.110613],[82.077315,11.112542],[82.08143,11.114471],[82.085544,11.1164],[82.089659,11.118328],[82.093774,11.120257],[82.097889,11.122186],[82.102004,11.124114],[82.106119,11.126042],[82.110234,11.127971],[82.11435,11.129899],[82.118465,11.131827],[82.12258,11.133756],[82.126695,11.135684],[82.130811,11.137612],[82.134926,11.13954],[82.139042,11.141468],[82.143157,11.143396],[82.147273,11.145324],[82.151389,11.147252],[82.155504,11.149179],[82.15962,11.151107],[82.163736,11.153035],[82.167852,11.154962],[82.171968,11.15689],[82.176084,11.158817],[82.1802,11.160745],[82.184316,11.162672],[82.188432,11.164599],[82.192548,11.166527],[82.196664,11.168454],[82.200781,11.170381],[82.204897,11.172308],[82.209014,11.174235],[82.21313,11.176162],[82.217247,11.178089],[82.221363,11.180016],[82.22548,11.181943],[82.229597,11.18387],[82.233713,11.185796],[82.23783,11.187723],[82.241947,11.18965],[82.246064,11.191576],[82.250181,11.193503],[82.254298,11.195429],[82.258415,11.197355],[82.262532,11.199282],[82.266649,11.201208],[82.270767,11.203134],[82.274884,11.20506],[82.279001,11.206986],[82.283119,11.208912],[82.287236,11.210838],[82.291354,11.212764],[82.295471,11.21469],[82.299589,11.216616],[82.303707,11.218542],[82.307824,11.220467],[82.311942,11.222393],[82.31606,11.224318],[82.320178,11.226244],[82.324296,11.228169],[82.328414,11.230095],[82.332532,11.23202],[82.33665,11.233945],[82.340768,11.235871],[82.344886,11.237796],[82.349005,11.239721],[82.353123,11.241646],[82.357242,11.243571],[82.36136,11.245496],[82.365479,11.247421],[82.369597,11.249346],[82.373716,11.25127],[82.377834,11.253195],[82.381953,11.25512],[82.386072,11.257044],[82.390191,11.258969],[82.39431,11.260894],[82.398429,11.262818],[82.402548,11.264742],[82.406667,11.266667],[82.411171,11.267503],[82.415675,11.26834],[82.42018,11.269176],[82.424684,11.270013],[82.429188,11.270849],[82.433693,11.271686],[82.438197,11.272522],[82.442702,11.273358],[82.447206,11.274194],[82.45171,11.27503],[82.456215,11.275866],[82.46072,11.276702],[82.465224,11.277538],[82.469729,11.278374],[82.474233,11.279209],[82.478738,11.280045],[82.483243,11.280881],[82.487747,11.281716],[82.492252,11.282552],[82.496757,11.283387],[82.501262,11.284222],[82.505767,11.285057],[82.510271,11.285893],[82.514776,11.286728],[82.519281,11.287563],[82.523786,11.288398],[82.528291,11.289233],[82.532796,11.290067],[82.537301,11.290902],[82.541806,11.291737],[82.546311,11.292571],[82.550816,11.293406],[82.555321,11.29424],[82.559826,11.295075],[82.564332,11.295909],[82.568837,11.296743],[82.573342,11.297578],[82.577847,11.298412],[82.582352,11.299246],[82.586858,11.30008],[82.591363,11.300914],[82.595868,11.301748],[82.600374,11.302581],[82.604879,11.303415],[82.609385,11.304249],[82.61389,11.305082],[82.618395,11.305916],[82.622901,11.306749],[82.627406,11.307583],[82.631912,11.308416],[82.636418,11.309249],[82.640923,11.310083],[82.645429,11.310916],[82.649934,11.311749],[82.65444,11.312582],[82.658946,11.313415],[82.663452,11.314248],[82.667957,11.31508],[82.672463,11.315913],[82.676969,11.316746],[82.681475,11.317578],[82.685981,11.318411],[82.690487,11.319243],[82.694992,11.320076],[82.699498,11.320908],[82.704004,11.32174],[82.70851,11.322572],[82.713016,11.323404],[82.717522,11.324236],[82.722028,11.325068],[82.726535,11.3259],[82.731041,11.326732],[82.735547,11.327564],[82.740053,11.328395],[82.744559,11.329227],[82.749065,11.330059],[82.753572,11.33089],[82.758078,11.331722],[82.762584,11.332553],[82.767091,11.333384],[82.771597,11.334215],[82.776103,11.335047],[82.78061,11.335878],[82.785116,11.336709],[82.789623,11.33754],[82.794129,11.33837],[82.798636,11.339201],[82.803142,11.340032],[82.807649,11.340863],[82.812155,11.341693],[82.816662,11.342524],[82.821169,11.343354],[82.825675,11.344185],[82.830182,11.345015],[82.834689,11.345845],[82.839196,11.346675],[82.843702,11.347505],[82.848209,11.348335],[82.852716,11.349165],[82.857223,11.349995],[82.86173,11.350825],[82.866237,11.351655],[82.870744,11.352485],[82.875251,11.353314],[82.879758,11.354144],[82.884265,11.354973],[82.888772,11.355803],[82.893279,11.356632],[82.897786,11.357461],[82.902293,11.358291],[82.9068,11.35912],[82.911307,11.359949],[82.915814,11.360778],[82.920322,11.361607],[82.924829,11.362436],[82.929336,11.363265],[82.933843,11.364093],[82.938351,11.364922],[82.942858,11.365751],[82.947366,11.366579],[82.951873,11.367408],[82.95638,11.368236],[82.960888,11.369064],[82.965395,11.369893],[82.969903,11.370721],[82.97441,11.371549],[82.978918,11.372377],[82.983426,11.373205],[82.987933,11.374033],[82.992441,11.374861],[82.996948,11.375689],[83.001456,11.376516],[83.005964,11.377344],[83.010472,11.378172],[83.014979,11.378999],[83.019487,11.379827],[83.023995,11.380654],[83.028503,11.381481],[83.033011,11.382308],[83.037519,11.383136],[83.042027,11.383963],[83.046535,11.38479],[83.051043,11.385617],[83.055551,11.386444],[83.060059,11.38727],[83.064567,11.388097],[83.069075,11.388924],[83.073583,11.389751],[83.078091,11.390577],[83.082599,11.391404],[83.087107,11.39223],[83.091616,11.393056],[83.096124,11.393883],[83.100632,11.394709],[83.10514,11.395535],[83.109649,11.396361],[83.114157,11.397187],[83.118665,11.398013],[83.123174,11.398839],[83.127682,11.399665],[83.132191,11.40049],[83.136699,11.401316],[83.141208,11.402142],[83.145716,11.402967],[83.150225,11.403793],[83.154733,11.404618],[83.159242,11.405443],[83.163751,11.406269],[83.168259,11.407094],[83.172768,11.407919],[83.177277,11.408744],[83.181786,11.409569],[83.186294,11.410394],[83.190803,11.411219],[83.195312,11.412043],[83.199821,11.412868],[83.20433,11.413693],[83.208839,11.414517],[83.213347,11.415342],[83.217856,11.416166],[83.222365,11.41699],[83.226874,11.417815],[83.231383,11.418639],[83.235893,11.419463],[83.240402,11.420287],[83.244911,11.421111],[83.24942,11.421935],[83.253929,11.422759],[83.258438,11.423583],[83.262947,11.424407],[83.267457,11.42523],[83.271966,11.426054],[83.276475,11.426877],[83.280985,11.427701],[83.285494,11.428524],[83.290003,11.429347],[83.294513,11.430171],[83.299022,11.430994],[83.303532,11.431817],[83.308041,11.43264],[83.312551,11.433463],[83.31706,11.434286],[83.32157,11.435109],[83.326079,11.435932],[83.330589,11.436754],[83.335098,11.437577],[83.339608,11.438399],[83.344118,11.439222],[83.348628,11.440044],[83.353137,11.440867],[83.357647,11.441689],[83.362157,11.442511],[83.366667,11.443333]]}}]}
