{"type":"FeatureCollection","metadata":{"title":"Ocean/weather sample points","generated":"2026-10-06","models":{"meteofrance_wave":"Copernicus Marine Service MFWAM global wave model (Meteo-France)","meteofrance_currents":"Copernicus Marine Service SMOC global currents and SST (Meteo-France)","era5":"Copernicus Climate Change Service ERA5 reanalysis (ECMWF)","gfs_seamless":"NOAA NCEP Global Forecast System (archived forecasts)"}},"features":[{"type":"Feature","id":"palk_strait_point_calimere","properties":{"name":"Palk Strait, south-east of Point Calimere","depthM":15.0,"modelCell":{"meteofrance_wave":[10.125,79.70836],"meteofrance_currents":[10.125,79.70836],"era5":[10.0,79.75],"gfs_seamless":[10.133423,79.6875]}},"geometry":{"type":"Point","coordinates":[79.7,10.1]}},{"type":"Feature","id":"palk_bay_kottaipattinam","properties":{"name":"Palk Bay, off Kottaipattinam","depthM":10.0,"modelCell":{"meteofrance_wave":[9.875,79.375015],"meteofrance_currents":[9.875,79.375015],"era5":[10.0,79.25],"gfs_seamless":[10.0162735,79.21875]}},"geometry":{"type":"Point","coordinates":[79.35,9.9]}},{"type":"Feature","id":"palk_bay_imbl_west","properties":{"name":"Palk Bay, west of IMBL position 3","depthM":13.0,"modelCell":{"meteofrance_wave":[9.625,79.29167],"meteofrance_currents":[9.625,79.29167],"era5":[9.5,79.25],"gfs_seamless":[9.664825,79.33594]}},"geometry":{"type":"Point","coordinates":[79.3,9.62]}},{"type":"Feature","id":"palk_bay_rameswaram_north","properties":{"name":"Palk Bay, north of Rameswaram","depthM":10.0,"modelCell":{"meteofrance_wave":[9.458336,79.29167],"meteofrance_currents":[9.458336,79.29167],"era5":[9.5,79.25],"gfs_seamless":[9.430527,79.33594]}},"geometry":{"type":"Point","coordinates":[79.33,9.45]}},{"type":"Feature","id":"palk_bay_katchatheevu_west","properties":{"name":"Palk Bay, west of Katchatheevu","depthM":13.0,"modelCell":{"meteofrance_wave":[9.375,79.45836],"meteofrance_currents":[9.458336,79.45836],"era5":[9.5,79.5],"gfs_seamless":[9.430527,79.453125]}},"geometry":{"type":"Point","coordinates":[79.45,9.4]}},{"type":"Feature","id":"gulf_of_mannar_pamban_south","properties":{"name":"Gulf of Mannar, south of Pamban","depthM":14.0,"modelCell":{"meteofrance_wave":[9.125,79.20836],"meteofrance_currents":[9.125,79.20836],"era5":[9.0,79.25],"gfs_seamless":[9.079079,79.21875]}},"geometry":{"type":"Point","coordinates":[79.25,9.1]}},{"type":"Feature","id":"gulf_of_mannar_central","properties":{"name":"Gulf of Mannar, off Keelakarai","depthM":40.0,"modelCell":{"meteofrance_wave":[8.958336,78.70836],"meteofrance_currents":[8.958336,78.70836],"era5":[9.0,78.75],"gfs_seamless":[8.961929,78.75]}},"geometry":{"type":"Point","coordinates":[78.75,8.95]}},{"type":"Feature","id":"gulf_of_mannar_tuticorin","properties":{"name":"Gulf of Mannar, off Thoothukudi","depthM":17.0,"modelCell":{"meteofrance_wave":[8.791664,78.375015],"meteofrance_currents":[8.791664,78.375015],"era5":[9.0,78.25],"gfs_seamless":[8.727631,78.39844]}},"geometry":{"type":"Point","coordinates":[78.35,8.75]}},{"type":"Feature","id":"gulf_of_mannar_imbl_south","properties":{"name":"Gulf of Mannar, west of IMBL position 7m","depthM":1395.0,"modelCell":{"meteofrance_wave":[8.375,78.875015],"meteofrance_currents":[8.375,78.875015],"era5":[8.5,78.75],"gfs_seamless":[8.376183,78.86719]}},"geometry":{"type":"Point","coordinates":[78.85,8.4]}}]}
