{"type":"FeatureCollection","metadata":{"source":"(c) OpenStreetMap contributors, ODbL 1.0","region":{"south":7.5,"north":10.8,"west":77.5,"east":80.6},"generated":"2026-10-06","simplifiedToleranceM":10.0,"notForNavigation":true,"title":"Harbours, ports and jetties"},"features":[{"type":"Feature","properties":{"osmId":"way/1019081686","name":"Fishery Harbour Myliddy","nameLocal":null,"nameTa":null,"source":"(c) OpenStreetMap contributors, ODbL 1.0","category":"fishing"},"geometry":{"type":"Point","coordinates":[80.071572,9.811988]}},{"type":"Feature","properties":{"osmId":"way/469643284","name":"Fishing Jetty","nameLocal":null,"nameTa":null,"source":"(c) OpenStreetMap contributors, ODbL 1.0","category":"fishing"},"geometry":{"type":"Point","coordinates":[80.116155,9.236728]}},{"type":"Feature","properties":{"osmId":"way/536617391","name":"Kottaippattinam Fishing Port","nameLocal":null,"nameTa":null,"source":"(c) OpenStreetMap contributors, ODbL 1.0","category":"fishing"},"geometry":{"type":"Point","coordinates":[79.203435,9.980654]}},{"type":"Feature","properties":{"osmId":"node/4486679710","name":"Mandaitivu Fishing Jetty","nameLocal":null,"nameTa":null,"source":"(c) OpenStreetMap contributors, ODbL 1.0","category":"fishing"},"geometry":{"type":"Point","coordinates":[80.000988,9.603654]}},{"type":"Feature","properties":{"osmId":"way/1413326164","name":"Palugahathurei Fishing Village","nameLocal":null,"nameTa":null,"source":"(c) OpenStreetMap contributors, ODbL 1.0","category":"fishing"},"geometry":{"type":"Point","coordinates":[79.862934,8.474905]}},{"type":"Feature","properties":{"osmId":"way/663938610","name":"Rameswaram Fishing Harbour and Boat Jetty","nameLocal":null,"nameTa":"இராமேஸ்வரம் மீன்பிடி துறைமுகம் மற்றும் படகு இறங்கு துறை","source":"(c) OpenStreetMap contributors, ODbL 1.0","category":"fishing"},"geometry":{"type":"Point","coordinates":[79.316085,9.281145]}},{"type":"Feature","properties":{"osmId":"relation/11278578","name":"Thoothukudi Fishing Harbour","nameLocal":null,"nameTa":null,"source":"(c) OpenStreetMap contributors, ODbL 1.0","category":"fishing"},"geometry":{"type":"Point","coordinates":[78.160287,8.794639]}},{"type":"Feature","properties":{"osmId":"way/1303771352","name":"Aalanthalai Harbour","nameLocal":null,"nameTa":null,"source":"(c) OpenStreetMap contributors, ODbL 1.0","category":"harbour"},"geometry":{"type":"Point","coordinates":[78.100897,8.463363]}},{"type":"Feature","properties":{"osmId":"way/1304241686","name":"Muthuregunathapuram Harbour","nameLocal":null,"nameTa":null,"source":"(c) OpenStreetMap contributors, ODbL 1.0","category":"harbour"},"geometry":{"type":"Point","coordinates":[78.91437,9.505829]}},{"type":"Feature","properties":{"osmId":"way/1304815070","name":"Nagapattinam Harbour","nameLocal":null,"nameTa":null,"source":"(c) OpenStreetMap contributors, ODbL 1.0","category":"harbour"},"geometry":{"type":"Point","coordinates":[79.851454,10.75992]}},{"type":"Feature","properties":{"osmId":"way/1304815859","name":"Nambiyar Nagar Harbour","nameLocal":null,"nameTa":null,"source":"(c) OpenStreetMap contributors, ODbL 1.0","category":"harbour"},"geometry":{"type":"Point","coordinates":[79.852225,10.777731]}},{"type":"Feature","properties":{"osmId":"way/1304811739","name":"Vellapanam Harbour","nameLocal":null,"nameTa":null,"source":"(c) OpenStreetMap contributors, ODbL 1.0","category":"harbour"},"geometry":{"type":"Point","coordinates":[79.863101,10.519883]}},{"type":"Feature","properties":{"osmId":"node/11913172341","name":"kangesanthurai international harbour","nameLocal":null,"nameTa":null,"source":"(c) OpenStreetMap contributors, ODbL 1.0","category":"harbour"},"geometry":{"type":"Point","coordinates":[80.036987,9.815932]}},{"type":"Feature","properties":{"osmId":"node/1223037739","name":null,"nameLocal":null,"nameTa":null,"source":"(c) OpenStreetMap contributors, ODbL 1.0","category":"harbour"},"geometry":{"type":"Point","coordinates":[79.706147,8.21552]}},{"type":"Feature","properties":{"osmId":"node/1769189560","name":null,"nameLocal":null,"nameTa":null,"source":"(c) OpenStreetMap contributors, ODbL 1.0","category":"harbour"},"geometry":{"type":"Point","coordinates":[78.785862,9.227589]}},{"type":"Feature","properties":{"osmId":"node/13513427153","name":null,"nameLocal":null,"nameTa":null,"source":"(c) OpenStreetMap contributors, ODbL 1.0","category":"harbour"},"geometry":{"type":"Point","coordinates":[79.791027,7.57838]}},{"type":"Feature","properties":{"osmId":"node/13513427167","name":null,"nameLocal":null,"nameTa":null,"source":"(c) OpenStreetMap contributors, ODbL 1.0","category":"harbour"},"geometry":{"type":"Point","coordinates":[79.790029,7.578881]}},{"type":"Feature","properties":{"osmId":"way/872193945","name":null,"nameLocal":null,"nameTa":null,"source":"(c) OpenStreetMap contributors, ODbL 1.0","category":"harbour"},"geometry":{"type":"Point","coordinates":[80.004877,9.623204]}},{"type":"Feature","properties":{"osmId":"way/494233370","name":"Columbuthurai Jetty","nameLocal":null,"nameTa":null,"source":"(c) OpenStreetMap contributors, ODbL 1.0","category":"jetty"},"geometry":{"type":"Point","coordinates":[80.046058,9.649512]}},{"type":"Feature","properties":{"osmId":"way/681780659","name":"Gowtharimunai jetty","nameLocal":null,"nameTa":null,"source":"(c) OpenStreetMap contributors, ODbL 1.0","category":"jetty"},"geometry":{"type":"Point","coordinates":[80.052009,9.599335]}},{"type":"Feature","properties":{"osmId":"way/681780660","name":"Gowtharimunai jetty","nameLocal":null,"nameTa":null,"source":"(c) OpenStreetMap contributors, ODbL 1.0","category":"jetty"},"geometry":{"type":"Point","coordinates":[80.051832,9.599398]}},{"type":"Feature","properties":{"osmId":"node/4034893256","name":"Iruppiddy Jetty","nameLocal":null,"nameTa":"இறுப்பிட்டி படகுத்துறை","source":"(c) OpenStreetMap contributors, ODbL 1.0","category":"jetty"},"geometry":{"type":"Point","coordinates":[79.807653,9.616204]}},{"type":"Feature","properties":{"osmId":"way/360562891","name":"Jetty","nameLocal":null,"nameTa":null,"source":"(c) OpenStreetMap contributors, ODbL 1.0","category":"jetty"},"geometry":{"type":"Point","coordinates":[80.231237,9.531148]}},{"type":"Feature","properties":{"osmId":"way/479193673","name":"Jetty","nameLocal":null,"nameTa":null,"source":"(c) OpenStreetMap contributors, ODbL 1.0","category":"jetty"},"geometry":{"type":"Point","coordinates":[80.112877,9.309294]}},{"type":"Feature","properties":{"osmId":"way/387629695","name":"Kodikkarai","nameLocal":null,"nameTa":null,"source":"(c) OpenStreetMap contributors, ODbL 1.0","category":"jetty"},"geometry":{"type":"Point","coordinates":[79.82368,10.274887]}},{"type":"Feature","properties":{"osmId":"way/494233369","name":"Kurunagar Jetty","nameLocal":null,"nameTa":null,"source":"(c) OpenStreetMap contributors, ODbL 1.0","category":"jetty"},"geometry":{"type":"Point","coordinates":[80.019097,9.649498]}},{"type":"Feature","properties":{"osmId":"way/624959155","name":"MV Pattinam Pier","nameLocal":null,"nameTa":null,"source":"(c) OpenStreetMap contributors, ODbL 1.0","category":"jetty"},"geometry":{"type":"Point","coordinates":[78.994538,9.708116]}},{"type":"Feature","properties":{"osmId":"node/4444899122","name":"Mannithalai Jetty","nameLocal":null,"nameTa":null,"source":"(c) OpenStreetMap contributors, ODbL 1.0","category":"jetty"},"geometry":{"type":"Point","coordinates":[80.095566,9.59013]}},{"type":"Feature","properties":{"osmId":"node/2138513353","name":"Maveliturai Jetty","nameLocal":null,"nameTa":null,"source":"(c) OpenStreetMap contributors, ODbL 1.0","category":"jetty"},"geometry":{"type":"Point","coordinates":[79.716735,9.528234]}},{"type":"Feature","properties":{"osmId":"way/198647630","name":"Muhathuwaram Jetty","nameLocal":null,"nameTa":null,"source":"(c) OpenStreetMap contributors, ODbL 1.0","category":"jetty"},"geometry":{"type":"Point","coordinates":[79.757753,8.251628]}},{"type":"Feature","properties":{"osmId":"node/4444859060","name":"Nagthevanthurai Jetty","nameLocal":null,"nameTa":null,"source":"(c) OpenStreetMap contributors, ODbL 1.0","category":"jetty"},"geometry":{"type":"Point","coordinates":[80.231613,9.532387]}},{"type":"Feature","properties":{"osmId":"way/409269632","name":"Norochcholai Jetty","nameLocal":null,"nameTa":null,"source":"(c) OpenStreetMap contributors, ODbL 1.0","category":"jetty"},"geometry":{"type":"Point","coordinates":[79.715592,8.02269]}},{"type":"Feature","properties":{"osmId":"node/4143865701","name":"Norochcholai Power Plant Jetty","nameLocal":null,"nameTa":null,"source":"(c) OpenStreetMap contributors, ODbL 1.0","category":"jetty"},"geometry":{"type":"Point","coordinates":[79.713451,8.022081]}},{"type":"Feature","properties":{"osmId":"node/4073733114","name":"Puliyadi Jetty","nameLocal":null,"nameTa":null,"source":"(c) OpenStreetMap contributors, ODbL 1.0","category":"jetty"},"geometry":{"type":"Point","coordinates":[79.806117,9.600252]}},{"type":"Feature","properties":{"osmId":"way/948621806","name":"Puliyadi Jetty","nameLocal":null,"nameTa":null,"source":"(c) OpenStreetMap contributors, ODbL 1.0","category":"jetty"},"geometry":{"type":"Point","coordinates":[79.806507,9.600677]}},{"type":"Feature","properties":{"osmId":"way/128806486","name":"Thalaimannar Pier","nameLocal":"Thalaimannar Pier","nameTa":null,"source":"(c) OpenStreetMap contributors, ODbL 1.0","category":"jetty"},"geometry":{"type":"Point","coordinates":[79.730282,9.108692]}},{"type":"Feature","properties":{"osmId":"way/1208274329","name":"Udangudi Pier","nameLocal":null,"nameTa":null,"source":"(c) OpenStreetMap contributors, ODbL 1.0","category":"jetty"},"geometry":{"type":"Point","coordinates":[78.096299,8.423452]}},{"type":"Feature","properties":{"osmId":"relation/18250434","name":"Chinna Muttom Harbour","nameLocal":null,"nameTa":null,"source":"(c) OpenStreetMap contributors, ODbL 1.0","category":"port"},"geometry":{"type":"Point","coordinates":[77.562863,8.097458]}},{"type":"Feature","properties":{"osmId":"relation/16417306","name":"Kankesanthurai ferry","nameLocal":null,"nameTa":null,"source":"(c) OpenStreetMap contributors, ODbL 1.0","category":"port"},"geometry":{"type":"Point","coordinates":[80.031571,9.823817]}},{"type":"Feature","properties":{"osmId":"way/1211516234","name":"Nagapattinam International Harbour","nameLocal":null,"nameTa":null,"source":"(c) OpenStreetMap contributors, ODbL 1.0","category":"port"},"geometry":{"type":"Point","coordinates":[79.850245,10.764001]}},{"type":"Feature","properties":{"osmId":"node/5315518550","name":"V.O.Chidambaranar Port (Port of Tuticorin)","nameLocal":null,"nameTa":null,"source":"(c) OpenStreetMap contributors, ODbL 1.0","category":"port"},"geometry":{"type":"Point","coordinates":[78.22639,8.749026]}},{"type":"Feature","properties":{"osmId":"way/515252360","name":null,"nameLocal":null,"nameTa":null,"source":"(c) OpenStreetMap contributors, ODbL 1.0","category":"port"},"geometry":{"type":"Point","coordinates":[79.95885,8.728084]}},{"type":"Feature","properties":{"osmId":"way/577750403","name":null,"nameLocal":null,"nameTa":null,"source":"(c) OpenStreetMap contributors, ODbL 1.0","category":"port"},"geometry":{"type":"Point","coordinates":[78.211932,8.749655]}},{"type":"Feature","properties":{"osmId":"way/653746973","name":null,"nameLocal":null,"nameTa":null,"source":"(c) OpenStreetMap contributors, ODbL 1.0","category":"port"},"geometry":{"type":"Point","coordinates":[79.527282,10.382976]}},{"type":"Feature","properties":{"osmId":"way/1212814692","name":null,"nameLocal":null,"nameTa":null,"source":"(c) OpenStreetMap contributors, ODbL 1.0","category":"port"},"geometry":{"type":"Point","coordinates":[80.031504,9.820779]}},{"type":"Feature","properties":{"osmId":"relation/11278577","name":null,"nameLocal":null,"nameTa":"துறைமுகம்","source":"(c) OpenStreetMap contributors, ODbL 1.0","category":"port"},"geometry":{"type":"Point","coordinates":[78.160795,8.80044]}},{"type":"Feature","properties":{"osmId":"way/1212814687","name":"காங்கேசன்துறை கடற்படை துறை -  தமிழீழம்","nameLocal":null,"nameTa":null,"source":"(c) OpenStreetMap contributors, ODbL 1.0","category":"port"},"geometry":{"type":"Point","coordinates":[80.032357,9.816828]}}]}
