{"type":"FeatureCollection","metadata":{"title":"Coastal weather stations (observations)","source":"NOAA NCEI ISD global-hourly","generated":"2026-10-06"},"features":[{"type":"Feature","id":"43363099999","properties":{"name":"Pamban","isdName":"PAMBAN, IN","elevationM":11.0,"first":"2023-01-01T00:00","last":"2025-08-24T21:00","observations":6789},"geometry":{"type":"Point","coordinates":[79.2166667,9.2833333]}},{"type":"Feature","id":"43361099999","properties":{"name":"Tondi","isdName":"TONDI, IN","elevationM":5.0,"first":"2023-01-01T00:00","last":"2025-08-24T18:00","observations":7129},"geometry":{"type":"Point","coordinates":[79.0333333,9.7333333]}},{"type":"Feature","id":"43348099999","properties":{"name":"Adiramapattinam","isdName":"ATIRAMAPATTINAM, IN","elevationM":6.0,"first":"2023-01-01T00:00","last":"2025-08-24T21:00","observations":7023},"geometry":{"type":"Point","coordinates":[79.3833333,10.3333333]}},{"type":"Feature","id":"43347099999","properties":{"name":"Nagapattinam","isdName":"NAGAPPATTINAM, IN","elevationM":9.0,"first":"2023-01-01T00:00","last":"2025-08-24T21:00","observations":7122},"geometry":{"type":"Point","coordinates":[79.85,10.7666666]}},{"type":"Feature","id":"43379099999","properties":{"name":"Tuticorin New Port","isdName":"TUTICORIN NEW PORT, IN","elevationM":2.0,"first":"2023-01-01T15:00","last":"2025-08-22T12:00","observations":1235},"geometry":{"type":"Point","coordinates":[78.1833333,8.75]}},{"type":"Feature","id":"43377099999","properties":{"name":"Kanyakumari","isdName":"KANNIYAKUMARI, IN","elevationM":37.0,"first":"2023-01-01T00:00","last":"2025-08-24T18:00","observations":6995},"geometry":{"type":"Point","coordinates":[77.5,8.0833333]}},{"type":"Feature","id":"43404099999","properties":{"name":"Jaffna","isdName":"JAFFNA, CE","elevationM":3.0,"first":"2023-01-01T03:00","last":"2025-08-24T12:00","observations":7380},"geometry":{"type":"Point","coordinates":[80.0166666,9.65]}},{"type":"Feature","id":"43413099999","properties":{"name":"Mannar","isdName":"MANNAR, CE","elevationM":3.0,"first":"2023-01-01T00:00","last":"2025-08-24T18:00","observations":8631},"geometry":{"type":"Point","coordinates":[79.9166666,8.9833333]}},{"type":"Feature","id":"43424099999","properties":{"name":"Puttalam","isdName":"PUTTALAM, CE","elevationM":2.0,"first":"2023-01-01T00:00","last":"2025-08-24T18:00","observations":4618},"geometry":{"type":"Point","coordinates":[79.8333333,8.0333333]}}]}
